{
  "norad_id": "64527",
  "name": "COSMOS 2590",
  "line1": "1 64527U 25131D   26171.46088404 -.00000325  00000+0  00000+0 0  9996",
  "line2": "2 64527   0.4712  77.7906 3652169  23.2254  72.5436  1.00231531  3642",
  "fetched_at": "2026-06-22T01:52:56.779376+00:00"
}